Wifi Hotspot Name,Address,Suburb,Latitude,Longitude,Site
Annerley Library Wifi,450 Ipswich Rd,ANNERLEY,-27.50942285,153.0333218,LIB
Ashgrove Library Wifi,87 Amarina Ave,ASHGROVE,-27.44394629,152.9870981,LIB
Banyo Library Wifi,284 St Vincents Rd,BANYO,-27.37396641,153.0783234,LIB
Bracken Ridge Library Wifi,77 Bracken St,BRACKEN RIDGE,-27.31797261,153.0378735,LIB
Brisbane Square Library Wifi,266 George St,BRISBANE CITY,-27.47091173,153.0224598,LIB
Bulimba Library Wifi,Cnr Riding Rd & Oxford St,BULIMBA,-27.45203086,153.0628242,LIB
Carina Library Wifi,Cnr Mayfield Rd & Nyrang St,CARINA,-27.49169314,153.0912127,LIB
Carindale Library Wifi,"Westfield Carindale, 1151 Creek Rd (near Millenium Boulevard)",CARINDALE,-27.501238,153.102374,LIB
Chermside Library Wifi,375 Hamilton Rd,CHERMSIDE,-27.3856032,153.0349028,LIB
City Archives,15/107-123 Muriel Ave,MOOROOKA,-27.543895,153.020201,LIB
Coopers Plains Library Wifi,107 Orange Grove Rd,COOPERS PLAINS,-27.56510509,153.0403183,LIB
Corinda Library Wifi,641 Oxley Rd,CORINDA,-27.53880237,152.9809091,LIB
Everton Park Library Wifi,561 South Pine Rd,EVERTON PARK,-27.4053336,152.9904205,LIB
Fairfield Library Wifi,"Fairfield Gardens Shopping Centre, Fairfield Rd",FAIRFIELD,-27.50909038,153.0259709,LIB
Garden City Library Wifi,"Garden City Shopping Centre, Level R4, Cnr Logan & Kessels Rd",UPPER MOUNT GRAVATT,-27.56244221,153.0809183,LIB
Grange Library Wifi,79 Evelyn St,GRANGE,-27.42531193,153.0174728,LIB
Hamilton Library Wifi,Cnr Racecourse Rd & Rossiter Pde,HAMILTON,-27.43790137,153.0642227,LIB
Holland Park Library Wifi,81 Seville Rd,HOLLAND PARK,-27.52292286,153.0722921,LIB
Inala Library Wifi,"Inala Shopping centre, Corsair Ave",INALA,-27.59828574,152.9735217,LIB
Indooroopilly Library Wifi,"Indrooroopilly Shopping centre, Level 4, 322 Moggill Rd",INDOOROOPILLY,-27.49764287,152.9736471,LIB
Kenmore Library Wifi,"Kenmore Village, 9 Brookfield Rd",KENMORE,-27.50592852,152.9386437,LIB
Mitchelton Library Wifi,37 Helipolis Pde,MITCHELTON,-27.41704165,152.9783402,LIB
Mt Coot-tha Botanic Gardens Library Wifi,"Brisbane Botanic Gardens, Mt Coot-tha Rd",TOOWONG,-27.47529908,152.9760412,LIB
Mt Gravatt Library Wifi,8 Creek Rd,MOUNT GRAVATT,-27.53855482,153.0802628,LIB
Mt Ommaney Library Wifi,"Mt Ommaney Shopping Centre, 171 Dandenong Rd",MOUNT OMMANEY,-27.54824198,152.9378099,LIB
New Farm Library Wifi,135 Sydney St,NEW FARM,-27.46736574,153.0495841,LIB
Nundah Library Wifi,1 Bage St (via Primrose Lane),NUNDAH,-27.40125908,153.0583751,LIB
Sandgate Library Wifi,"Sandgate Town Hall, Seymour St",SANDGATE,-27.32060523,153.0704927,LIB
Stones Corner Library Wifi,280 Logan Rd,STONES CORNER,-27.49803575,153.043655,LIB
Sunnybank Hills Library Wifi,"Sunnybank Hills Shoppingtown, Cnr Compton & Calam Rds",SUNNYBANK HILLS,-27.6109253,153.0550706,LIB
Toowong Library Wifi,"Toowong Village Shopping Centre, 9 Sherwood Rd",TOOWONG,-27.48505116,152.9925091,LIB
West End Library Wifi,178-180 Boundary St,WEST END,-27.48245078,153.0120763,LIB
Wynnum Library Wifi,145 Florence St,WYNNUM,-27.444938,153.171646,LIB
Zillmere Library Wifi,Cnr Jennings St and Zillmere Rd,ZILLMERE,-27.36014232,153.0407898,LIB
QLD_07321001X2,127 Queen St,BRISBANE CITY,-27.46967,153.02515,CBD
QLD_07321010X2,141 Queen St,BRISBANE CITY,-27.46924,153.02579,CBD
QLD_07321014X2,155 Queen St,BRISBANE CITY,-27.46882,153.02657,CBD
QLD_07321017X2,221 ALBERT ST,BRISBANE CITY,-27.469504,153.025176,CBD
QLD_07321116X2,33 Queen St,BRISBANE CITY,-27.47067,153.02387,CBD
QLD_07321117X2,33 Queen St,BRISBANE CITY,-27.47048,153.02392,CBD
QLD_07322112X2,109 Elizabeth St,BRISBANE CITY,-27.470596,153.025824,CBD
QLD_07322116X2,136 Elizabeth St,BRISBANE CITY,-27.470011,153.026413,CBD
QLD_07322117X2,232 Albert St,BRISBANE CITY,-27.469209,153.024791,CBD
QLD_07322119X2,10 Eagle St,BRISBANE CITY,-27.469399,153.030166,CBD
QLD_07322121X2,128 Edward St,BRISBANE CITY,-27.469984,153.028516,CBD
QLD_07322131X2,10 Charlotte St,BRISBANE CITY,-27.47234,153.02498,CBD
QLD_07322136X2,180 Mary St,BRISBANE CITY,-27.470447,153.029261,CBD
QLD_07322138X2,165 Adelaide St,BRISBANE CITY,-27.467763,153.02595,CBD
QLD_07322144X2,179 Ann St,BRISBANE CITY,-27.467221,153.024958,CBD
QLD_07322146X2,280 ADELAIDE ST,BRISBANE CITY,-27.465714,153.028389,CBD
QLD_07322147X2,232 Adelaide St,BRISBANE CITY,-27.46656,153.027263,CBD
QLD_07322148X2,345 Queen St,BRISBANE CITY,-27.46673,153.02909,CBD
QLD_07322150X2,35 Creek St,BRISBANE CITY,-27.467561,153.029193,CBD
QLD_07322165X2,70 Adelaide St,BRISBANE CITY,-27.469385,153.023778,CBD
QLD_07322915X2,15 Adelaide St,BRISBANE CITY,-27.469975,153.023175,CBD
QLD_07322918X2,88 Adelaide St,BRISBANE CITY,-27.46906,153.024087,CBD
QLD_07322920X2,135 Margaret St,BRISBANE CITY,-27.47281561,153.0281487,CBD
QLD_07322921X2,270 ANN ST,BRISBANE CITY,-27.466536,153.02562,CBD
QLD_07322922X2,3 Edward St,BRISBANE CITY,-27.47202,153.0305,CBD
QLD_07322926X2,201 Elizabeth St,BRISBANE CITY,-27.469229,153.027579,CBD
QLD_07322927X2,123 Albert St,BRISBANE CITY,-27.47078,153.02641,CBD
QLD_07322929X2,54 Adelaide St,BRISBANE CITY,-27.469538,153.023588,CBD
QLD_07322948X2,72 QUEEN ST,BRISBANE CITY,-27.4701,153.0239,CBD
QLD_07322952X2,91 Queen St,BRISBANE CITY,-27.4702,153.02444,CBD
QLD_07323600X2,30 HERSCHEL ST NR NORTH QUAY,BRISBANE CITY,-27.467956,153.018788,CBD
QLD_07323602X2,58 Roma St,BRISBANE CITY,-27.46768,153.02212,CBD
QLD_07323604X2,20 Makerston St,BRISBANE CITY,-27.466833,153.018736,CBD
QLD_07323611X2,96 Albert St,BRISBANE CITY,-27.471699,153.027213,CBD
QLD_07323617X2,35 Turbot St,BRISBANE CITY,-27.46888,153.021202,CBD
QLD_07323619X2,304 George St,BRISBANE CITY,-27.469877,153.022385,CBD
QLD_07325251X2,9 Duncan St,FORTITUDE VALLEY,-27.458311,153.033223,SUB
QLD_07325284X2,275 Brunswick St,FORTITUDE VALLEY,-27.45774,153.03407,SUB
QLD_07325711X2,256 Wickham St,FORTITUDE VALLEY,-27.45688,153.03409,SUB
QLD_07325713X2,230 Brunswick St,FORTITUDE VALLEY,-27.456809,153.032926,SUB
QLD_07326909X2,"3 Third Ave, near Brighton Rd",SANDGATE,-27.319618,153.069435,SUB
QLD_07326912X2,119 Brighton Rd,SANDGATE,-27.317763,153.067793,SUB
QLD_07326925X2,3 Knox St,SANDGATE,-27.32196,153.069299,SUB
QLD_07335802X2,51 Chester St,FORTITUDE VALLEY,-27.455837,153.042673,SUB
QLD_07335809X2,1020 BRUNSWICK ST,NEW FARM,-27.471089,153.051264,SUB
QLD_07335815X2,65 James St,FORTITUDE VALLEY,-27.45758223,153.0408661,SUB
QLD_07336704X2,163 Given Tce,PADDINGTON,-27.46228,153.00868,SUB
QLD_07336800X2,18 Caxton St,PETRIE TERRACE,-27.464555,153.012713,SUB
QLD_07336926X2,202 Given Tce,PADDINGTON,-27.4618,153.00605,SUB
QLD_07339716X2,58 Old Cleveland Rd,STONES CORNER,-27.498589,153.045962,SUB
QLD_07339719X2,303 Logan Rd,STONES CORNER,-27.498591,153.0441,SUB
QLD_07339721X2,416 Logan Rd,STONES CORNER,-27.50078,153.04598,SUB
QLD_07339738X2,50 Cleveland St,STONES CORNER,-27.500519,153.044625,SUB
QLD_07383100X1,344 WICKHAM TCE,BRISBANE CITY,-27.464264,153.019492,CBD
QLD_07383100X2,193 Wickham Tce,BRISBANE CITY,-27.465428,153.02407,CBD
QLD_07383102X2,24 Berry St,SPRING HILL,-27.464947,153.023778,SUB
QLD_07383108X2,73 Wickham Tce,SPRING HILL,-27.464606,153.026722,SUB
QLD_07383109X2,369 Ann St,BRISBANE CITY,-27.464118,153.029049,CBD
QLD_07383203X2,1 Astor Tce,SPRING HILL,-27.46387,153.024851,SUB
QLD_07383901X2,465 Wickham Tce,SPRING HILL,-27.46179,153.02098,SUB
QLD_07383902X2,135 Wickham Tce,BRISBANE CITY,-27.464807,153.025661,CBD
QLD_07383903X2,17 Gregory Tce,SPRING HILL,-27.46044,153.01869,SUB
QLD_07383904X2,149 Wickham Tce,SPRING HILL,-27.464646,153.025356,SUB
QLD_07384444X2,100 Grey St,SOUTH BRISBANE,-27.47408,153.018486,SUB
QLD_07384467X2,50 Ernest St,SOUTH BRISBANE,-27.479379,153.021689,SUB
QLD_07384470X2,121 Merivale St,SOUTH BRISBANE,-27.481457,153.021087,SUB
QLD_07384608X2,"Grey St, Maritime Museum",SOUTH BRISBANE,-27.48187,153.02538,SUB
QLD_07384612X1, Grey St,SOUTH BRISBANE,-27.47868477,153.0227853,SUB
QLD_07384714X2,383 Logan Rd,STONES CORNER,-27.499823,153.045197,SUB
QLD_07385210X2,20 Duncan St,FORTITUDE VALLEY,-27.45895629,153.034177,SUB
QLD_07385212X2,390 Brunswick St,FORTITUDE VALLEY,-27.45933,153.03634,SUB
QLD_07385214X2,267 Brunswick St,FORTITUDE VALLEY,-27.45741,153.03363,SUB
QLD_07385217X2,316 Brunswick St,FORTITUDE VALLEY,-27.45774,153.03407,SUB
QLD_07385402X2,39 James St,FORTITUDE VALLEY,-27.45689634,153.0400461,SUB
QLD_07386902X2,"11 Fourth Ave, Cnr Brighton Rd",SANDGATE,-27.318799,153.068623,SUB
QLD_07323624X2,28 Quay St,BRISBANE CITY,-27.467145,153.013533,CBD
QLD_CBD001A,Intersection of Albert St and Alice St,BRISBANE CITY,-27.473612,153.028942,CBD
QLD_CBD004A,Intersection of George St and Alice St,BRISBANE CITY,-27.474748,153.027119,CBD
QLD_CBD005B,Intersection of George St and Adelaide St,BRISBANE CITY,-27.470306,153.02278,CBD
QLD_CBD006A,Intersection of Edward St and Margaret St,BRISBANE CITY,-27.471365,153.030052,CBD
QLD_CBD009A,Intersection of Felix St and Mary St,BRISBANE CITY,-27.470161,153.029606,CBD
QLD_CBD013A,159 William Street,BRISBANE CITY,-27.472409,153.023582,CBD
QLD_CBD017A,Intersection of Alice and William St,BRISBANE CITY,-27.475144,153.026505,CBD
QLD_CBD018A,Intersection of North Quay and Queen St,BRISBANE CITY,-27.471396,153.022694,CBD
QLD_CBD019A,Intersection of North Quay and Adelaide St,BRISBANE CITY,-27.470901,153.022096,CBD
QLD_CBD020A,Intersection of North Quay and Ann St,BRISBANE CITY,-27.470031,153.021108,CBD
QLD_CBD023C,42 Makerston St,BRISBANE CITY,-27.467405,153.017789,CBD
QLD_CBD027A,Intersection of Roma St and Parkland,BRISBANE CITY,-27.467218,153.020932,CBD
QLD_CBD028B,Intersection of Turbot St and Albert St,BRISBANE CITY,-27.467416,153.023131,CBD
QLD_CBD029B,Intersection of Ann St and Roma St,BRISBANE CITY,-27.468296,153.023412,CBD
QLD_CBD031A,Intersection of Charlotte St and Albert St,BRISBANE CITY,-27.471144,153.026854,CBD
QLD_CBD034A,Intersection of Charlotte and Creek St,BRISBANE CITY,-27.468581,153.02993,CBD
QLD_CBD035A,Intersection of Elizabeth St and Creek St,BRISBANE CITY,-27.467901,153.029341,CBD
QLD_CBD036A,Intersection of Elizabeth St and George St,BRISBANE CITY,-27.471761,153.024443,CBD
QLD_CBD042A,Intersection of Ann and George St,BRISBANE CITY,-27.469468,153.021954,CBD
QLD_CBD045A,Intersection of Adelaide St and Creek St,BRISBANE CITY,-27.466392,153.027805,CBD
QLD_CBD046A,Intersection of Creek St and Queen St,BRISBANE CITY,-27.46691,153.028579,CBD
QLD_CBD047B,Intersection of Wharf St and Queen St,BRISBANE CITY,-27.465686,153.030161,CBD
QLD_CBD049A,443 Queen Street,BRISBANE CITY,-27.46488,153.031327,CBD
QLD_CBD050A,80 Eagle Street,BRISBANE CITY,-27.467057,153.029948,CBD
QLD_CBD051A,Intersection of Adelaide St and Queen St,BRISBANE CITY,-27.463745,153.031258,CBD
QLD_CBD053B,Intersection of Adelaide St and Albert St,BRISBANE CITY,-27.468741,153.024521,CBD
QLD_CBD054A,Intersection of Adelaide St and Wharf St,BRISBANE CITY,-27.464883,153.029411,CBD
QLD_CBD058A,256 Ann Street (Central Station Exit),BRISBANE CITY,-27.466202,153.026353,CBD
QLD_CBD059A,Intersection of Ann St and Creek St,BRISBANE CITY,-27.465544,153.026988,CBD
QLD_CBD063A,Intersection of Turbot St and Edward St,BRISBANE CITY,-27.466043,153.024893,CBD
QLD_CBD065A,Intersection of Turbot St and Wharf St,SPRING HILL,-27.463729,153.028235,SUB
QLD_CBD068A,208 Boundary Street,SPRING HILL,-27.46176496,153.0299777,SUB
QLD_CBD069A,70 Wickham St,FORTITUDE VALLEY,-27.46171055,153.031091,SUB
QLD_CBD072A,211 Adelaide St,BRISBANE CITY,-27.466884,153.027173,CBD
QLD_CBD073A,Intersection of Queen St and Edward St,BRISBANE CITY,-27.468364,153.027052,CBD
QLD_CBD074B,Intersection of George St and Queen St,BRISBANE CITY,-27.471017,153.023694,CBD
QLD_CBD076A,Intersection of George St and Tank St,BRISBANE CITY,-27.467975,153.02074,CBD
QLD_CBD077A,Intersection of George St and Herchel St,BRISBANE CITY,-27.467302,153.019817,CBD
QLD_CHI080A,Intersection of Brunswick St and Ann St,FORTITUDE VALLEY,-27.458385,153.035003,SUB
QLD_CHI081A,Intersection of Ann and Warner St,FORTITUDE VALLEY,-27.457697,153.035644,SUB
QLD_CHI082A,25 Warner St,FORTITUDE VALLEY,-27.457253,153.035064,SUB
QLD_SOU084A,Intersection of Grey St and Vulture St,SOUTH BRISBANE,-27.482493,153.024347,SUB
QLD_SOU085A,Intersection of Grey St and Tribune St,SOUTH BRISBANE,-27.480803,153.022952,SUB
QLD_SOU086B,176-186 Grey St,SOUTH BRISBANE,-27.479731,153.02235,SUB
QLD_SOU087A,Intersection of Grey St and Glenelg St,SOUTH BRISBANE,-27.477563,153.020965,SUB
QLD_SOU088A,Intersection of Grey St and Russell St,SOUTH BRISBANE,-27.475645,153.019612,SUB
QLD_SOU089A,59 Grey St,SOUTH BRISBANE,-27.472366,153.01741,SUB
QLD_SOU090A,Southbank Public Area near FDB12,SOUTH BRISBANE,-27.478988,153.024073,SUB
QLD_SOU091A,Southbank Public Area near FDB5B,SOUTH BRISBANE,-27.480811,153.02447,SUB
QLD_SOU092A,Southbank Public Area near FDB10,SOUTH BRISBANE,-27.479065,153.023651,SUB
QLD_SOU093A,Southbank Riverside Green Playground,SOUTH BRISBANE,-27.4772,153.02251,SUB
QLD_SOU094A,Southbank Little Stanley St,SOUTH BRISBANE,-27.477563,153.021486,SUB
QLD_SOU095A,Southbank Pir A (FDB31),SOUTH BRISBANE,-27.47487523,153.0211448,SUB
QLD_SOU096A,Southbank Cultural Forecourt,SOUTH BRISBANE,-27.47392,153.02037,SUB
QLD_SOU097A,Southbank Victoria Bridge,SOUTH BRISBANE,-27.473002,153.019642,SUB
QLD_SOU102A,Southbank Public Area near FDB16 (SB01 - Southbank Overview),SOUTH BRISBANE,-27.478261,153.023812,SUB
QLD_SOU103A,South Bank 2 Ferry Terminal,SOUTH BRISBANE,-27.476138,153.022057,SUB
QLD_CAX104B,Intersection of Caxton St and Petrie Tce,PETRIE TERRACE,-27.464852,153.013268,SUB
QLD_CAX105B,47-55 Caxton St (outside Caxton Thai and 7 Nights Convenience Store),PETRIE TERRACE,-27.464075,153.012389,SUB
QLD_CAX106A,Intersection of Caxton St and Hale St,PETRIE TERRACE,-27.463395,153.011378,SUB
QLD_CAX107A,140 Caxton St,PADDINGTON,-27.46291439,153.0099488,SUB
QLD_CAX108A,Intersection of Caxton St and Dowse St,PADDINGTON,-27.462316,153.008898,SUB
QLD_PAD109A,169 Given Terrace,PADDINGTON,-27.462074,153.007561,SUB
QLD_PAD110A,235 Given Terrace,PADDINGTON,-27.461339,153.005131,SUB
QLD_PAD111A,252 Given Terrace,PADDINGTON,-27.461037,153.004061,SUB
QLD_PAD112A,Intersection of Given Tce and Latrobe Tce,PADDINGTON,-27.460389,153.002524,SUB
QLD_JAM113A,27 Doggett St,NEWSTEAD,-27.455397,153.04202,SUB
QLD_JAM114A,19 Chester St,NEWSTEAD,-27.454684,153.041277,SUB
QLD_JAM115A,9 Chester St,NEWSTEAD,-27.454173,153.040675,SUB
QLD_JAM116A,1000 Ann St,FORTITUDE VALLEY,-27.453484,153.03985,SUB
QLD_JAM117B,Intersection of Ann St and Wandoo St,FORTITUDE VALLEY,-27.45456,153.038786,SUB
QLD_JAM118A,9 Wandoo St,FORTITUDE VALLEY,-27.455171,153.039583,SUB
QLD_JAM119A,52 Wandoo St,FORTITUDE VALLEY,-27.456413,153.041379,SUB
QLD_JAM120A,49 James St,FORTITUDE VALLEY,-27.45712,153.040317,SUB
QLD_JAM121B,15 James St,FORTITUDE VALLEY,-27.456054,153.038923,SUB
QLD_JAM122A,Intersection of Ann St and East St,FORTITUDE VALLEY,-27.455461,153.037878,SUB
QLD_ROM123A,Roma Parklands 1 (3 Parkland Blvd),BRISBANE CITY,-27.463469,153.017472,PRK
QLD_ROM124A,Roma Parklands 2,BRISBANE CITY,-27.4633,153.01802,PRK
QLD_ROM125A,Roma Parklands 3,BRISBANE CITY,-27.463047,153.018785,PRK
QLD_ROM126A,Roma Parklands 4,BRISBANE CITY,-27.463827,153.01895,PRK
QLD_ROM127A,Roma Parklands 5,BRISBANE CITY,-27.463671,153.018384,PRK
QLD_ROM128A,Roma Parklands 6,BRISBANE CITY,-27.462581,153.017153,PRK
QLD_ROM129A,Roma Parklands 7,BRISBANE CITY,-27.462292,153.019397,PRK
QLD_ROM130A,Roma Parklands 8,BRISBANE CITY,-27.46282,153.020052,PRK
QLD_JAM131A,162 Arthur St,FORTITUDE VALLEY,-27.457795,153.040973,SUB
QLD_JAM132A,22 Wandoo St,FORTITUDE VALLEY,-27.455498,153.04018,SUB
QLD_JAM133A,104 MacLachlan St,FORTITUDE VALLEY,-27.456378,153.03859,SUB
QLD_JAM134A,849 Ann St,FORTITUDE VALLEY,-27.455891,153.037676,SUB
QLD_PRK135A,Einbumpin Lagoon (Brighton Rd),SANDGATE,-27.319647,153.068013,PRK
QLD_PRK136A,Hidden World Park (Roghan Rd),FITZGIBBON,-27.339671,153.034982,PRK
QLD_PRK137A,7th Brigade Park (Delaware St),CHERMSIDE,-27.378073,153.045342,PRK
QLD_PRK138A,7th Brigade Park - Kidspace (Murphy Rd),CHERMSIDE,-27.378502,153.034144,PRK
QLD_PRK139A,Teralba Park (Cnr Pullen- and Osborne Rds),EVERTON PARK,-27.402601,152.980938,PRK
QLD_PRK140A,Kalinga Park (Kalinga St),WOOLOOWIN,-27.406684,153.05223,PRK
QLD_PRK141A,Oriel Park (Cnr Alexandra and Lancaster Rds),ASCOT,-27.428918,153.057855,PRK
QLD_PRK142A,Gregory Park (Baroona Rd and Murruba St),PADDINGTON,-27.466169,152.999193,PRK
QLD_CBD143A,City Botanic Gardens,BRISBANE CITY,-27.475228,153.028856,PRK
QLD_PRK144A,Brisbane Botanic Gardens - Japanese Garden (Mt Coot-tha Rd),TOOWONG,-27.47717,152.977058,PRK
QLD_PRK145A,"218 Sir Samuel Griffith Drive, Mount Coot-Tha",TOOWONG,-27.485014,152.958818,PRK
QLD_PRK146A,New Farm Park (Brunswick St),NEW FARM,-27.470268,153.052223,PRK
QLD_PRK148A,Guyatt Park (End of Hiron St),ST LUCIA,-27.492785,153.001571,PRK
QLD_PRK149A,Rocks Riverside Park (AP1) (Counihan Rd),SEVENTEEN MILE ROCKS,-27.541513,152.959327,PRK
QLD_PRK150A,Booker Place Park (Birkin Rd and Sugarwood St),BELLBOWRIE,-27.5626,152.893667,PRK
QLD_PRK151A,The Lake Parklands (Forest Lake Blvd),FOREST LAKE,-27.620266,152.966331,PRK
QLD_PRK152A,Calamvale District Park (Formby St and Ormskirk St),CALAMVALE,-27.620848,153.038002,PRK
QLD_PRK153A,D.M. Henderson Park (Granadilla St),MACGREGOR,-27.569531,153.071415,PRK
QLD_PRK154A,Glindemann Park (Logan Rd),HOLLAND PARK,-27.52656,153.069546,PRK
QLD_PRK155A, Carindale Recreation Reserve (Cadogan St and Bedivere St),CARINDALE,-27.496784,153.108657,PRK
QLD_PRK156A,Orleigh Park (Hill End Terrace / Orleigh St),WEST END,-27.48995,153.00326,PRK
QLD_CBD157A,King George Square,BRISBANE CITY,-27.468269,153.024276,CBD
QLD_CBD158A,Post Office Square,BRISBANE CITY,-27.467459,153.027402,CBD
QLD_CBD159A,King Edward Park Jacobs Ladder,BRISBANE CITY,-27.465809,153.023932,PRK
QLD_CBD161A,Intersection of Albert and Mary St,BRISBANE CITY,-27.471962,153.027597,CBD
QLD_CBD169A,Intersection of Herschel St and North Quay,BRISBANE CITY,-27.468291,153.018609,CBD
QLD_SOU170A,SB01 - Southbank Overview (Inside Arbour Walk),SOUTH BRISBANE,-27.477924,153.02201,SUB
QLD_SOU171A,Southbank Boardwalk next to green lawn and close to Southbank Pier 3,SOUTH BRISBANE,-27.48032751,153.0248507,SUB
QLD_SOU172A,Southbank Near Maritime Museum,SOUTH BRISBANE,-27.48127,153.02583,SUB
QLD_SOU173A,SB01 - Southbank Overview (FDB7),SOUTH BRISBANE,-27.480221,153.024602,SUB
QLD_SOU174A,SB01 - Southbank Overview (FDB11),SOUTH BRISBANE,-27.47968,153.02429,SUB
QLD_SOU175A,SB01 - Southbank Overview (Little Stanley St 1),SOUTH BRISBANE,-27.48033679,153.023393,SUB
QLD_SOU176A,SB01 - Southbank Overview (Little Stanley St 2),SOUTH BRISBANE,-27.47956047,153.0228867,SUB
QLD_SOU177A,SB01 - Southbank Overview (Little Stanley St 3),SOUTH BRISBANE,-27.47907301,153.0225627,SUB
QLD_SOU178A,SB01 - Southbank Overview (Little Stanley St 4),SOUTH BRISBANE,-27.477285,153.021714,SUB
QLD_SOU179A,SB01 - Southbank Overview (FDB 33) and SB08 FDBs,SOUTH BRISBANE,-27.474908,153.020361,SUB
QLD_SOU180A,SB01 - Southbank Overview (FDB 34) and SB08 FDBs,SOUTH BRISBANE,-27.47423,153.019912,SUB
QLD_SOU181A,SB01 - Southbank Overview (Rain Bank) and SB07 Rain Bank,SOUTH BRISBANE,-27.47594,153.02145,SUB
QLD_SOU182A,SB01 - Southbank Overview (Piazza) and SB6 Piazza,SOUTH BRISBANE,-27.476764,153.021349,SUB
QLD_CBD183A,Intersection of Edward St and Charlotte St,BRISBANE CITY,-27.469878,153.0283,CBD
QLD_CBD184A,Intersection of Ann St and Edward St,BRISBANE CITY,-27.466817,153.025294,CBD
QLD_CBD185A,Intersection of Mary St and George St,BRISBANE CITY,-27.473275,153.025901,CBD
QLD_CBD186A,Intersection of Margaret St and George St,BRISBANE CITY,-27.473993,153.026649,CBD
QLD_SOU206A,SB01 - Southbank Overview (Piazza) and SB6 Piazza,SOUTH BRISBANE,-27.476916,153.02173,SUB
QLD_SOU207A,SB01 - Southbank Overview (Riverside Restaurant),SOUTH BRISBANE,-27.480689,153.024839,SUB
QLD_SOU208A,SB01 - Southbank Overview (Gazebo on small island),SOUTH BRISBANE,-27.47787,153.02301,SUB
QLD_SOU209A,SB01 - Southbank Overview (Southbank House),SOUTH BRISBANE,-27.478652,153.022463,SUB
QLD_SOU210A,SB01 - Southbank Overview (Southbank House),SOUTH BRISBANE,-27.478455,153.022653,SUB
QLD_SOU211A,SB01 - Southbank Overview (Allgas Building),SOUTH BRISBANE,-27.478869,153.022931,SUB
QLD_SOU215A,SB01 - Southbank Overview (River Quay Restaurants),SOUTH BRISBANE,-27.480821,153.025031,SUB
QLD_SOU216A,SB01 - Southbank Overview (River Quay Restaurants),SOUTH BRISBANE,-27.480888,153.025569,SUB
QLD_SOU217A,SB01 - Southbank Overview (Piazza) and SB6 Piazza,SOUTH BRISBANE,-27.477252,153.02146,SUB
QLD_SOU218A,SB01 - Southbank Overview (Piazza) and SB6 Piazza,SOUTH BRISBANE,-27.477116,153.021364,SUB
QLD_SOU219A,SB01 - Southbank Overview (Piazza) and SB6 Piazza,SOUTH BRISBANE,-27.476976,153.021271,SUB
QLD_CHI220A,678-694 Ann St,FORTITUDE VALLEY,-27.457893,153.035017,SUB
QLD_CHI221A,7 Winn St,FORTITUDE VALLEY,-27.457846,153.036124,SUB
QLD_CBD224A,71 Eagle St - Riparian Plaza,BRISBANE CITY,-27.468136,153.030957,CBD
QLD_JAM231A,James St Precinct,FORTITUDE VALLEY,-27.45555,153.039581,SUB
QLD_JAM232A,James St Precinct,FORTITUDE VALLEY,-27.45584023,153.0394588,SUB
QLD_JAM233A,James St Precinct,FORTITUDE VALLEY,-27.456335,153.038874,SUB
QLD_JAM234A,James St Precinct,FORTITUDE VALLEY,-27.456917,153.039038,SUB
QLD_JAM235A,James St Precinct,FORTITUDE VALLEY,-27.456435,153.039698,SUB
QLD_JAM236A,James St Precinct,FORTITUDE VALLEY,-27.456487,153.040001,SUB
QLD_JAM237A,James St Precinct,FORTITUDE VALLEY,-27.456429,153.03913,SUB
QLD_JAM238A,James St Precinct,FORTITUDE VALLEY,-27.456159,153.039584,SUB
QLD_SOU239A,Victoria Bridge,SOUTH BRISBANE,-27.473077,153.01988,SUB
QLD_CBD240A,Victoria Bridge - CBD side,BRISBANE CITY,-27.471764,153.022499,CBD
QLD_PRK245A,"218 Sir Samuel Griffith Drive, Mount Coot-Tha",TOOWONG,-27.484857,152.959131,PRK
QLD_PRK246A,"1012 Sir Samuel Griffith Drive, Mount Coot-Tha",TOOWONG,-27.484567,152.959526,PRK
QLD_KPT247A,Intersection of River Tce and Main St,KANGAROO POINT,-27.476536,153.035512,SUB
QLD_KPT248A,3B River Tce,KANGAROO POINT,-27.476832,153.034995,SUB
QLD_KPT249A,1 Leopard St,KANGAROO POINT,-27.481907,153.032737,SUB
QLD_KPT250A,461C Main St,KANGAROO POINT,-27.475801,153.035146,SUB
QLD_KPT251A,461 Main St,KANGAROO POINT,-27.475389,153.035138,SUB
QLD_KPT252A,200 River Tce,KANGAROO POINT,-27.480838,153.033388,SUB
QLD_STO262A,286 Logan Rd,STONES CORNER,-27.49824,153.043585,SUB
QLD_STO263A,2 Old Cleveland Rd,STONES CORNER,-27.498527,153.04471,SUB
QLD_STO264A,346-356 Logan Rd,STONES CORNER,-27.499088,153.044929,SUB
QLD_STO265A,405-407 Logan Rd,STONES CORNER,-27.50021,153.045418,SUB
QLD_STO266A,6 Jeavons Lane,STONES CORNER,-27.500852,153.045479,SUB
QLD_STO267A,433 Logan Rd,STONES CORNER,-27.5013,153.04635,SUB
QLD_STO268A,11 Cleveland St,STONES CORNER,-27.49869,153.043251,SUB
QLD_SAN272A,18 Bowser Parade,SANDGATE,-27.321436,153.069408,SUB
QLD_SAN273A,10 Bowser Parade,SANDGATE,-27.321148,153.069669,SUB
QLD_SAN274A,6 Brighton Rd,SANDGATE,-27.320159,153.069913,SUB
QLD_SAN275A,0 Lagoon St,SANDGATE,-27.320139,153.068045,SUB
QLD_SAN276A,62 Loudon St,SANDGATE,-27.321097,153.070822,SUB
QLD_SAN276B,1 Cliff St,SANDGATE,-27.320512,153.070661,SUB
QLD_SAN277A,5 Bowser Parade,SANDGATE,-27.320558,153.069391,SUB
QLD_SAN278A,77 Keogh St,SANDGATE,-27.318671,153.067981,SUB
QLD_SAN279A,51 Brighton Rd,SANDGATE,-27.319237,153.069003,SUB
QLD_WYN280A,137 Wynnum Esplanade,WYNNUM,-27.44202331,153.1764257,SUB
QLD_WYN281A,137 Wynnum Esplanade,WYNNUM,-27.441951,153.17637,SUB
QLD_WYN282A,89 Bay Terrace,WYNNUM,-27.443211,153.173084,SUB
QLD_07339618X2,66 FLORENCE ST,WYNNUM,-27.44396458,153.1733202,SUB
QLD_WYN283A,128 Bay Tce,WYNNUM,-27.44433871,153.1742945,SUB
QLD_WYN284A,92 Florence Street,WYNNUM,-27.44445624,153.1727148,SUB
QLD_WYN285A,70 Edith Street,WYNNUM,-27.44487611,153.1736891,SUB
QLD_07339634X2,145 Florence St,WYNNUM,-27.44501888,153.1719572,SUB
QLD_07389304X2,76 Edith St,WYNNUM,-27.44528827,153.1731544,SUB
QLD_WYN286A,149 Florence Street,WYNNUM,-27.44535057,153.1719503,SUB
QLD_07339632X2,125 Edith St,WYNNUM,-27.44571314,153.1722108,SUB
QLD_SLU287A,228-234 Hawken Drive,ST LUCIA,-27.502172,153.006037,SUB
QLD_07387012X2,225 Hawken Drive,ST LUCIA,-27.502179,153.006513,SUB
QLD_MKA288A,130 Beaudesert Rd,MOOROOKA,-27.531844,153.024199,SUB
QLD_MKA289A,Intersection of Beaudesert and Mayfield Rds,MOOROOKA,-27.53275,153.02489,SUB
QLD_07327200X1,344 Jackson Rd,SUNNYBANK HILLS,-27.596705,153.044791,SUB
QLD_WCC001A,105 Florence St,WYNNUM,-27.444289,153.17214,SUB
QLD_WCC002A,105 Florence St,WYNNUM,-27.444303,153.17214,SUB
QLD_WCC003A,105 Florence St,WYNNUM,-27.444321,153.17222,SUB
QLD_WCC004A,105 Florence St,WYNNUM,-27.444252,153.17232,SUB
QLD_WCC005A,105 Florence St,WYNNUM,-27.444157,153.17246,SUB
QLD_NDA290A,Corner of Station Street & Sandgate Road ,NUNDAH,-27.401952,153.0601,SUB
QLD_NDA291A,1229 Sandgate Road,NUNDAH,-27.402629,153.060417,SUB
QLD_NDA292A,Corner of Buckland Road & Sandgate Road ,NUNDAH,-27.403329,153.060525,SUB
QLD_07326619X2,34 Station St,NUNDAH,-27.401112,153.061297,SUB
QLD_BFT001A,11 Byron St,BULIMBA,-27.443453,153.063745,BFT
QLD_BFT002A,2 Oxford St,BULIMBA,-27.450343,153.052458,BFT
QLD_BFT003A,44 Ferry St,KANGAROO POINT,-27.472425,153.039041,BFT
QLD_BFT004A,45 Eagle St,BRISBANE CITY,-27.468784,153.030924,BFT
QLD_BFT005A,10 Gordon St,HAWTHORNE,-27.461178,153.053706,BFT
QLD_BFT006A,9 Annie St,KANGAROO POINT,-27.465814,153.03403,BFT
QLD_BFT007A,30 Dock St,SOUTH BRISBANE,-27.481987,153.028493,BFT
QLD_BFT008A,3/299 Coronation Dr,MILTON,-27.473792,153.005405,BFT
QLD_BFT009A,31A Park Ave,EAST BRISBANE,-27.477545,153.043163,BFT
QLD_BFT010A,1231A Brunswick St,NEW FARM,-27.471502,153.052376,BFT
QLD_BFT011A,68 Wynnum Rd,NORMAN PARK,-27.474564,153.053686,BFT
QLD_BFT012A,285 MacArthur Ave,HAMILTON,-27.445213,153.084004,BFT
QLD_BFT013A,15B Queens Wharf Rd,BRISBANE CITY,-27.472606,153.022718,BFT
QLD_BFT014A,2 George St,BRISBANE CITY,-27.478369,153.026147,BFT
QLD_BFT015A,555 Coronation Dr,TOOWONG,-27.483466,152.996808,BFT
QLD_BFT016A,7/145 Eagle St,BRISBANE CITY,-27.466821,153.0313,BFT
QLD_BFT017A,172 Oxlade Dr,NEW FARM,-27.474729,153.042168,BFT
QLD_BFT018A,53 Vernon Terrace,TENERIFFIC,-27.451933,153.049229,BFT
QLD_BFT019A,11 Thornton St,KANGAROO POINT,-27.471235,153.034266,BFT
QLD_BFT020A,342 Carmody Rd,ST LUCIA,-27.496836,153.019643,BFT
QLD_CALI001A,"California Lane, 22 McLachlan St",FORTITUDE VALLEY,-27.458636,153.035813,SUB
QLD_SGHL001A,Corner of Fortescue St & Boundary Street,SPRING HILL,-27.460621,153.023422,SUB
QLD_SGHL002A,Corner of Fortescue St & Boundary Street,SPRING HILL,-27.460621,153.023422,SUB
QLD_SGHL003A (QLD_07383201X2),74 Little Edward Street,SPRING HILL,-27.461143,153.024359,SUB
QLD_SGHL004A,Corner of Wharf St & Leichhardt Street,SPRING HILL,-27.461943,153.026385,SUB
QLD_SGHL005A,Little Edward St & Leichhardt Street,SPRING HILL,-27.462616,153.024353,SUB
QLD_SGHL006A,442a Upper Edward St,SPRING HILL,-27.463837,153.024618,SUB
QLD_SGHL007A (QLD_07383202X2),67 Astor Terrace,SPRING HILL,-27.46349,153.026104,SUB
QLD_ENE_GB,Gardens Point Road,BRISBANE CITY,-27.479009,153.028774,CBD
QLD_ENE_KB,11 Monatgue Road,SOUTH BRISBANE,-27.46981,153.017024,SUB
QLD_ENE_PSP,113 Caxton St,PADDINGTON,-27.463068,153.010877,SUB
QLD_ENE_SF,Flinders Parade,SANDGATE,-27.314001,153.069433,SUB
QLD_ENE-BRSP,523 Telegraph Rd,FITZGIBBON,-27.331854,153.043185,SUB
